{"fetched_at":"2026-03-29T02:12:04Z","count":15717,"tles":[{"name":"STARLINK-34621","line1":"1 64774U 25147V   26087.60355944  .00034893  00000+0  11848-2 0  9996","line2":"2 64774  53.1584 155.1733 0001373  78.8712 281.2443 15.30197354 41577","category":"Starlink"}]}